ONEWEB-0568             
1 56062U 23043S   26121.27280691 -.00000016  00000+0 -74606-4 0  9993
2 56062  87.9087 238.0880 0001844 111.0066 249.1263 13.16595585152802
ONEWEB-0574             
1 56063U 23043T   26120.88152093 -.00000029  00000+0 -10181-3 0  9995
2 56063  87.9233 253.3868 0002044 104.6077 255.5284 13.21826702152027
ONEWEB-0575             
1 56064U 23043U   26121.26648359  .00000003  00000+0 -26772-4 0  9999
2 56064  87.9087 238.0853 0002242 111.7479 248.3891 13.16595528152795
ONEWEB-0576             
1 56065U 23043V   26121.24748538  .00000099  00000+0  22632-3 0  9992
2 56065  87.9091 238.0956 0002059 107.6434 252.4922 13.16594808152786
ONEWEB-0577             
1 56066U 23043W   26121.25381244  .00000052  00000+0  10302-3 0  9991
2 56066  87.9091 238.0919 0002642 111.5069 248.6344 13.16595060152812
ONEWEB-0578             
1 56067U 23043X   26121.32223776  .00000027  00000+0  33568-4 0  9997
2 56067  87.9228 253.3003 0001774 110.0634 250.0691 13.21826432152049
ONEWEB-0579             
1 56068U 23043Y   26121.31382637  .00000108  00000+0  23116-3 0  9996
2 56068  87.9234 253.2965 0001982  92.9083 267.2278 13.21827728152051
ONEWEB-0581             
1 56069U 23043Z   26121.26014646  .00000029  00000+0  41195-4 0  9993
2 56069  87.9090 238.1024 0002460 108.2424 251.8975 13.16594370152783
ONEWEB-0609             
1 56070U 23043AA  26120.94978515 -.00000019  00000+0 -83960-4 0  9990
2 56070  87.8955 268.6326 0001708  97.4011 262.7313 13.15549545150229
ONEWEB-0613             
1 56071U 23043AB  26120.94741442  .00000048  00000+0  92193-4 0  9996
2 56071  87.8954 268.6451 0001817  88.7394 271.3944 13.15547957150227
ONEWEB-0630             
1 56072U 23043AC  26120.94265913  .00000062  00000+0  12982-3 0  9994
2 56072  87.8956 268.6165 0001864  90.0491 270.0852 13.15547791150217
ONEWEB-0632             
1 56073U 23043AD  26120.93790630  .00000075  00000+0  16467-3 0  9999
2 56073  87.8956 268.6354 0001983  99.9117 260.2237 13.15548643150218
ONEWEB-0633             
1 56074U 23043AE  26121.15972548  .00000156  00000+0  38080-3 0  9990
2 56074  87.8968 268.5628 0001667  84.8202 275.3119 13.15547924150220
ONEWEB-0634             
1 56075U 23043AF  26120.91730178 -.00000039  00000+0 -13865-3 0  9991
2 56075  87.8956 268.6554 0001528 104.3362 255.7938 13.15548697150182
ONEWEB-0635             
1 56076U 23043AG  26120.83649545 -.00000028  00000+0 -10868-3 0  9998
2 56076  87.8965 268.6299 0002078 101.7393 258.3971 13.15548123150208
ONEWEB-0636             
1 56077U 23043AH  26120.82856902 -.00000142  00000+0 -41177-3 0  9999
2 56077  87.8956 268.6412 0002012 101.4908 258.6448 13.15547865150184
