[{"OBJECT_NAME":"ONEWEB-0568","OBJECT_ID":"2023-043S","EPOCH":"2026-05-01T06:32:50.517024","MEAN_MOTION":13.16595585,"ECCENTRICITY":0.0001844,"INCLINATION":87.9087,"RA_OF_ASC_NODE":238.088,"ARG_OF_PERICENTER":111.0066,"MEAN_ANOMALY":249.1263,"EPHEMERIS_TYPE":0,"CLASSIFICATION_TYPE":"U","NORAD_CAT_ID":56062,"ELEMENT_SET_NO":999,"REV_AT_EPOCH":15280,"BSTAR":-7.4606e-05,"MEAN_MOTION_DOT":-1.6e-07,"MEAN_MOTION_DDOT":0.0},{"OBJECT_NAME":"ONEWEB-0574","OBJECT_ID":"2023-043T","EPOCH":"2026-04-30T21:09:23.408352","MEAN_MOTION":13.21826702,"ECCENTRICITY":0.0002044,"INCLINATION":87.9233,"RA_OF_ASC_NODE":253.3868,"ARG_OF_PERICENTER":104.6077,"MEAN_ANOMALY":255.5284,"EPHEMERIS_TYPE":0,"CLASSIFICATION_TYPE":"U","NORAD_CAT_ID":56063,"ELEMENT_SET_NO":999,"REV_AT_EPOCH":15202,"BSTAR":-0.00010181,"MEAN_MOTION_DOT":-2.9e-07,"MEAN_MOTION_DDOT":0.0},{"OBJECT_NAME":"ONEWEB-0575","OBJECT_ID":"2023-043U","EPOCH":"2026-05-01T06:23:44.182176","MEAN_MOTION":13.16595528,"ECCENTRICITY":0.0002242,"INCLINATION":87.9087,"RA_OF_ASC_NODE":238.0853,"ARG_OF_PERICENTER":111.7479,"MEAN_ANOMALY":248.3891,"EPHEMERIS_TYPE":0,"CLASSIFICATION_TYPE":"U","NORAD_CAT_ID":56064,"ELEMENT_SET_NO":999,"REV_AT_EPOCH":15279,"BSTAR":-2.6772000000000004e-05,"MEAN_MOTION_DOT":3e-08,"MEAN_MOTION_DDOT":0.0},{"OBJECT_NAME":"ONEWEB-0576","OBJECT_ID":"2023-043V","EPOCH":"2026-05-01T05:56:22.736832","MEAN_MOTION":13.16594808,"ECCENTRICITY":0.0002059,"INCLINATION":87.9091,"RA_OF_ASC_NODE":238.0956,"ARG_OF_PERICENTER":107.6434,"MEAN_ANOMALY":252.4922,"EPHEMERIS_TYPE":0,"CLASSIFICATION_TYPE":"U","NORAD_CAT_ID":56065,"ELEMENT_SET_NO":999,"REV_AT_EPOCH":15278,"BSTAR":0.00022632,"MEAN_MOTION_DOT":9.9e-07,"MEAN_MOTION_DDOT":0.0},{"OBJECT_NAME":"ONEWEB-0577","OBJECT_ID":"2023-043W","EPOCH":"2026-05-01T06:05:29.394816","MEAN_MOTION":13.1659506,"ECCENTRICITY":0.0002642,"INCLINATION":87.9091,"RA_OF_ASC_NODE":238.0919,"ARG_OF_PERICENTER":111.5069,"MEAN_ANOMALY":248.6344,"EPHEMERIS_TYPE":0,"CLASSIFICATION_TYPE":"U","NORAD_CAT_ID":56066,"ELEMENT_SET_NO":999,"REV_AT_EPOCH":15281,"BSTAR":0.00010302,"MEAN_MOTION_DOT":5.2e-07,"MEAN_MOTION_DDOT":0.0},{"OBJECT_NAME":"ONEWEB-0578","OBJECT_ID":"2023-043X","EPOCH":"2026-05-01T07:44:01.342464","MEAN_MOTION":13.21826432,"ECCENTRICITY":0.0001774,"INCLINATION":87.9228,"RA_OF_ASC_NODE":253.3003,"ARG_OF_PERICENTER":110.0634,"MEAN_ANOMALY":250.0691,"EPHEMERIS_TYPE":0,"CLASSIFICATION_TYPE":"U","NORAD_CAT_ID":56067,"ELEMENT_SET_NO":999,"REV_AT_EPOCH":15204,"BSTAR":3.3568e-05,"MEAN_MOTION_DOT":2.7e-07,"MEAN_MOTION_DDOT":0.0},{"OBJECT_NAME":"ONEWEB-0579","OBJECT_ID":"2023-043Y","EPOCH":"2026-05-01T07:31:54.598368","MEAN_MOTION":13.21827728,"ECCENTRICITY":0.0001982,"INCLINATION":87.9234,"RA_OF_ASC_NODE":253.2965,"ARG_OF_PERICENTER":92.9083,"MEAN_ANOMALY":267.2278,"EPHEMERIS_TYPE":0,"CLASSIFICATION_TYPE":"U","NORAD_CAT_ID":56068,"ELEMENT_SET_NO":999,"REV_AT_EPOCH":15205,"BSTAR":0.00023116,"MEAN_MOTION_DOT":1.08e-06,"MEAN_MOTION_DDOT":0.0},{"OBJECT_NAME":"ONEWEB-0581","OBJECT_ID":"2023-043Z","EPOCH":"2026-05-01T06:14:36.654144","MEAN_MOTION":13.1659437,"ECCENTRICITY":0.000246,"INCLINATION":87.909,"RA_OF_ASC_NODE":238.1024,"ARG_OF_PERICENTER":108.2424,"MEAN_ANOMALY":251.8975,"EPHEMERIS_TYPE":0,"CLASSIFICATION_TYPE":"U","NORAD_CAT_ID":56069,"ELEMENT_SET_NO":999,"REV_AT_EPOCH":15278,"BSTAR":4.1195e-05,"MEAN_MOTION_DOT":2.9e-07,"MEAN_MOTION_DDOT":0.0},{"OBJECT_NAME":"ONEWEB-0609","OBJECT_ID":"2023-043AA","EPOCH":"2026-04-30T22:47:41.436960","MEAN_MOTION":13.15549545,"ECCENTRICITY":0.0001708,"INCLINATION":87.8955,"RA_OF_ASC_NODE":268.6326,"ARG_OF_PERICENTER":97.4011,"MEAN_ANOMALY":262.7313,"EPHEMERIS_TYPE":0,"CLASSIFICATION_TYPE":"U","NORAD_CAT_ID":56070,"ELEMENT_SET_NO":999,"REV_AT_EPOCH":15022,"BSTAR":-8.396e-05,"MEAN_MOTION_DOT":-1.9e-07,"MEAN_MOTION_DDOT":0.0},{"OBJECT_NAME":"ONEWEB-0613","OBJECT_ID":"2023-043AB","EPOCH":"2026-04-30T22:44:16.605888","MEAN_MOTION":13.15547957,"ECCENTRICITY":0.0001817,"INCLINATION":87.8954,"RA_OF_ASC_NODE":268.6451,"ARG_OF_PERICENTER":88.7394,"MEAN_ANOMALY":271.3944,"EPHEMERIS_TYPE":0,"CLASSIFICATION_TYPE":"U","NORAD_CAT_ID":56071,"ELEMENT_SET_NO":999,"REV_AT_EPOCH":15022,"BSTAR":9.2193e-05,"MEAN_MOTION_DOT":4.8e-07,"MEAN_MOTION_DDOT":0.0},{"OBJECT_NAME":"ONEWEB-0630","OBJECT_ID":"2023-043AC","EPOCH":"2026-04-30T22:37:25.748832","MEAN_MOTION":13.15547791,"ECCENTRICITY":0.0001864,"INCLINATION":87.8956,"RA_OF_ASC_NODE":268.6165,"ARG_OF_PERICENTER":90.0491,"MEAN_ANOMALY":270.0852,"EPHEMERIS_TYPE":0,"CLASSIFICATION_TYPE":"U","NORAD_CAT_ID":56072,"ELEMENT_SET_NO":999,"REV_AT_EPOCH":15021,"BSTAR":0.00012982,"MEAN_MOTION_DOT":6.2e-07,"MEAN_MOTION_DDOT":0.0},{"OBJECT_NAME":"ONEWEB-0632","OBJECT_ID":"2023-043AD","EPOCH":"2026-04-30T22:30:35.104320","MEAN_MOTION":13.15548643,"ECCENTRICITY":0.0001983,"INCLINATION":87.8956,"RA_OF_ASC_NODE":268.6354,"ARG_OF_PERICENTER":99.9117,"MEAN_ANOMALY":260.2237,"EPHEMERIS_TYPE":0,"CLASSIFICATION_TYPE":"U","NORAD_CAT_ID":56073,"ELEMENT_SET_NO":999,"REV_AT_EPOCH":15021,"BSTAR":0.00016467,"MEAN_MOTION_DOT":7.5e-07,"MEAN_MOTION_DDOT":0.0},{"OBJECT_NAME":"ONEWEB-0633","OBJECT_ID":"2023-043AE","EPOCH":"2026-05-01T03:50:00.281472","MEAN_MOTION":13.15547924,"ECCENTRICITY":0.0001667,"INCLINATION":87.8968,"RA_OF_ASC_NODE":268.5628,"ARG_OF_PERICENTER":84.8202,"MEAN_ANOMALY":275.3119,"EPHEMERIS_TYPE":0,"CLASSIFICATION_TYPE":"U","NORAD_CAT_ID":56074,"ELEMENT_SET_NO":999,"REV_AT_EPOCH":15022,"BSTAR":0.00038080000000000004,"MEAN_MOTION_DOT":1.56e-06,"MEAN_MOTION_DDOT":0.0},{"OBJECT_NAME":"ONEWEB-0634","OBJECT_ID":"2023-043AF","EPOCH":"2026-04-30T22:00:54.873792","MEAN_MOTION":13.15548697,"ECCENTRICITY":0.0001528,"INCLINATION":87.8956,"RA_OF_ASC_NODE":268.6554,"ARG_OF_PERICENTER":104.3362,"MEAN_ANOMALY":255.7938,"EPHEMERIS_TYPE":0,"CLASSIFICATION_TYPE":"U","NORAD_CAT_ID":56075,"ELEMENT_SET_NO":999,"REV_AT_EPOCH":15018,"BSTAR":-0.00013865,"MEAN_MOTION_DOT":-3.9e-07,"MEAN_MOTION_DDOT":0.0},{"OBJECT_NAME":"ONEWEB-0635","OBJECT_ID":"2023-043AG","EPOCH":"2026-04-30T20:04:33.206880","MEAN_MOTION":13.15548123,"ECCENTRICITY":0.0002078,"INCLINATION":87.8965,"RA_OF_ASC_NODE":268.6299,"ARG_OF_PERICENTER":101.7393,"MEAN_ANOMALY":258.3971,"EPHEMERIS_TYPE":0,"CLASSIFICATION_TYPE":"U","NORAD_CAT_ID":56076,"ELEMENT_SET_NO":999,"REV_AT_EPOCH":15020,"BSTAR":-0.00010868,"MEAN_MOTION_DOT":-2.8e-07,"MEAN_MOTION_DDOT":0.0},{"OBJECT_NAME":"ONEWEB-0636","OBJECT_ID":"2023-043AH","EPOCH":"2026-04-30T19:53:08.363328","MEAN_MOTION":13.15547865,"ECCENTRICITY":0.0002012,"INCLINATION":87.8956,"RA_OF_ASC_NODE":268.6412,"ARG_OF_PERICENTER":101.4908,"MEAN_ANOMALY":258.6448,"EPHEMERIS_TYPE":0,"CLASSIFICATION_TYPE":"U","NORAD_CAT_ID":56077,"ELEMENT_SET_NO":999,"REV_AT_EPOCH":15018,"BSTAR":-0.00041177000000000005,"MEAN_MOTION_DOT":-1.42e-06,"MEAN_MOTION_DDOT":0.0}]